{"type":"FeatureCollection","features":[{"type":"Feature","geometry":{"type":"Point","coordinates":[53.732606,-1.863298]},"properties":{"Site position":"Library area","Address2":"Boothtown Road","Address3":"Halifax","Site name":"Akroyd Library","Latitude":"-1.863298","Address1":"Bankfield","Postcode":"HX3 6HG","Longitude":"53.732606"}},{"type":"Feature","geometry":{"type":"Point","coordinates":[53.721358,-1.778423]},"properties":{"Site position":"Library area","Address2":"","Address3":"Brighouse","Site name":"Bailiff Bridge Library","Latitude":"-1.778423","Address1":"64 Devon Way","Postcode":"HD6 4DT","Longitude":"53.721358"}},{"type":"Feature","geometry":{"type":"Point","coordinates":[53.701858,-1.779431]},"properties":{"Site position":"Hall","Address2":"","Address3":"Brighouse","Site name":"Brighouse Civic Hall","Latitude":"-1.779431","Address1":"Bradford Road","Postcode":"HD6 1RW","Longitude":"53.701858"}},{"type":"Feature","geometry":{"type":"Point","coordinates":[53.701858,-1.779431]},"properties":{"Site position":"Downstairs corridor","Address2":"","Address3":"Brighouse","Site name":"Brighouse Civic Hall","Latitude":"-1.779431","Address1":"Bradford Road","Postcode":"HD6 1RW","Longitude":"53.701858"}},{"type":"Feature","geometry":{"type":"Point","coordinates":[53.703935,-1.786137]},"properties":{"Site position":"External","Address2":"","Address3":"Brighouse","Site name":"Brighouse Library","Latitude":"-1.786137","Address1":"Halifax Road","Postcode":"HD6 2AF","Longitude":"53.703935"}},{"type":"Feature","geometry":{"type":"Point","coordinates":[53.703935,-1.786137]},"properties":{"Site position":"Gallery","Address2":"","Address3":"Brighouse","Site name":"Brighouse Library","Latitude":"-1.786137","Address1":"Halifax Road","Postcode":"HD6 2AF","Longitude":"53.703935"}},{"type":"Feature","geometry":{"type":"Point","coordinates":[53.703935,-1.786137]},"properties":{"Site position":"ICT corridor","Address2":"","Address3":"Brighouse","Site name":"Brighouse Library","Latitude":"-1.786137","Address1":"Halifax Road","Postcode":"HD6 2AF","Longitude":"53.703935"}},{"type":"Feature","geometry":{"type":"Point","coordinates":[53.703935,-1.786137]},"properties":{"Site position":"Meeting room","Address2":"","Address3":"Brighouse","Site name":"Brighouse Library","Latitude":"-1.786137","Address1":"Halifax Road","Postcode":"HD6 2AF","Longitude":"53.703935"}},{"type":"Feature","geometry":{"type":"Point","coordinates":[53.703935,-1.786137]},"properties":{"Site position":"Library area","Address2":"","Address3":"Brighouse","Site name":"Brighouse Library","Latitude":"-1.786137","Address1":"Halifax Road","Postcode":"HD6 2AF","Longitude":"53.703935"}},{"type":"Feature","geometry":{"type":"Point","coordinates":[53.72201,-1.855965]},"properties":{"Site position":"AP09","Address2":"","Address3":"Halifax","Site name":"Central Library and Archive","Latitude":"-1.855965","Address1":"Square Road","Postcode":"HX1 1QG","Longitude":"53.722010"}},{"type":"Feature","geometry":{"type":"Point","coordinates":[53.72201,-1.855965]},"properties":{"Site position":"AP08","Address2":"","Address3":"Halifax","Site name":"Central Library and Archive","Latitude":"-1.855965","Address1":"Square Road","Postcode":"HX1 1QG","Longitude":"53.722010"}},{"type":"Feature","geometry":{"type":"Point","coordinates":[53.72201,-1.855965]},"properties":{"Site position":"AP12","Address2":"","Address3":"Halifax","Site name":"Central Library and Archive","Latitude":"-1.855965","Address1":"Square Road","Postcode":"HX1 1QG","Longitude":"53.722010"}},{"type":"Feature","geometry":{"type":"Point","coordinates":[53.72201,-1.855965]},"properties":{"Site position":"AP05","Address2":"","Address3":"Halifax","Site name":"Central Library and Archive","Latitude":"-1.855965","Address1":"Square Road","Postcode":"HX1 1QG","Longitude":"53.722010"}},{"type":"Feature","geometry":{"type":"Point","coordinates":[53.72201,-1.855965]},"properties":{"Site position":"AP07","Address2":"","Address3":"Halifax","Site name":"Central Library and Archive","Latitude":"-1.855965","Address1":"Square Road","Postcode":"HX1 1QG","Longitude":"53.722010"}},{"type":"Feature","geometry":{"type":"Point","coordinates":[53.72201,-1.855965]},"properties":{"Site position":"AP06","Address2":"","Address3":"Halifax","Site name":"Central Library and Archive","Latitude":"-1.855965","Address1":"Square Road","Postcode":"HX1 1QG","Longitude":"53.722010"}},{"type":"Feature","geometry":{"type":"Point","coordinates":[53.72201,-1.855965]},"properties":{"Site position":"AP02","Address2":"","Address3":"Halifax","Site name":"Central Library and Archive","Latitude":"-1.855965","Address1":"Square Road","Postcode":"HX1 1QG","Longitude":"53.722010"}},{"type":"Feature","geometry":{"type":"Point","coordinates":[53.72201,-1.855965]},"properties":{"Site position":"AP03","Address2":"","Address3":"Halifax","Site name":"Central Library and Archive","Latitude":"-1.855965","Address1":"Square Road","Postcode":"HX1 1QG","Longitude":"53.722010"}},{"type":"Feature","geometry":{"type":"Point","coordinates":[53.72201,-1.855965]},"properties":{"Site position":"AP11","Address2":"","Address3":"Halifax","Site name":"Central Library and Archive","Latitude":"-1.855965","Address1":"Square Road","Postcode":"HX1 1QG","Longitude":"53.722010"}},{"type":"Feature","geometry":{"type":"Point","coordinates":[53.72201,-1.855965]},"properties":{"Site position":"AP10","Address2":"","Address3":"Halifax","Site name":"Central Library and Archive","Latitude":"-1.855965","Address1":"Square Road","Postcode":"HX1 1QG","Longitude":"53.722010"}},{"type":"Feature","geometry":{"type":"Point","coordinates":[53.72201,-1.855965]},"properties":{"Site position":"AP04","Address2":"","Address3":"Halifax","Site name":"Central Library and Archive","Latitude":"-1.855965","Address1":"Square Road","Postcode":"HX1 1QG","Longitude":"53.722010"}},{"type":"Feature","geometry":{"type":"Point","coordinates":[53.72201,-1.855965]},"properties":{"Site position":"AP01","Address2":"","Address3":"Halifax","Site name":"Central Library and Archive","Latitude":"-1.855965","Address1":"Square Road","Postcode":"HX1 1QG","Longitude":"53.722010"}},{"type":"Feature","geometry":{"type":"Point","coordinates":[53.721094,-1.857577]},"properties":{"Site position":"AP1","Address2":"","Address3":"Halifax","Site name":"Customer First","Latitude":"-1.857577","Address1":"19 Horton Street","Postcode":"HX1 1QE","Longitude":"53.721094"}},{"type":"Feature","geometry":{"type":"Point","coordinates":[53.721094,-1.857577]},"properties":{"Site position":"AP2","Address2":"","Address3":"Halifax","Site name":"Customer First","Latitude":"-1.857577","Address1":"19 Horton Street","Postcode":"HX1 1QE","Longitude":"53.721094"}},{"type":"Feature","geometry":{"type":"Point","coordinates":[53.721094,-1.857577]},"properties":{"Site position":"AP3","Address2":"","Address3":"Halifax","Site name":"Customer First","Latitude":"-1.857577","Address1":"19 Horton Street","Postcode":"HX1 1QE","Longitude":"53.721094"}},{"type":"Feature","geometry":{"type":"Point","coordinates":[53.721094,-1.857577]},"properties":{"Site position":"AP4","Address2":"","Address3":"Halifax","Site name":"Customer First","Latitude":"-1.857577","Address1":"19 Horton Street","Postcode":"HX1 1QE","Longitude":"53.721094"}},{"type":"Feature","geometry":{"type":"Point","coordinates":[53.721094,-1.857577]},"properties":{"Site position":"AP5","Address2":"","Address3":"Halifax","Site name":"Customer First","Latitude":"-1.857577","Address1":"19 Horton Street","Postcode":"HX1 1QE","Longitude":"53.721094"}},{"type":"Feature","geometry":{"type":"Point","coordinates":[53.721094,-1.857577]},"properties":{"Site position":"Public area","Address2":"","Address3":"Halifax","Site name":"Customer First","Latitude":"-1.857577","Address1":"19 Horton Street","Postcode":"HX1 1QE","Longitude":"53.721094"}},{"type":"Feature","geometry":{"type":"Point","coordinates":[53.684578,-1.837863]},"properties":{"Site position":"Childrens library","Address2":"","Address3":"Elland","Site name":"Elland Library","Latitude":"-1.837863","Address1":"Coronation Street","Postcode":"HX5 0DF","Longitude":"53.684578"}},{"type":"Feature","geometry":{"type":"Point","coordinates":[53.684578,-1.837863]},"properties":{"Site position":"Main library","Address2":"","Address3":"Elland","Site name":"Elland Library","Latitude":"-1.837863","Address1":"Coronation Street","Postcode":"HX5 0DF","Longitude":"53.684578"}},{"type":"Feature","geometry":{"type":"Point","coordinates":[53.688267,-1.866372]},"properties":{"Site position":"Library area","Address2":"Greetland","Address3":"Halifax","Site name":"Greetland Library","Latitude":"-1.866372","Address1":"310 Rochdale Road","Postcode":"HX4 8JE","Longitude":"53.688267"}},{"type":"Feature","geometry":{"type":"Point","coordinates":[53.722352,-1.859409]},"properties":{"Site position":"AP4","Address2":"","Address3":"Halifax","Site name":"Halifax Borough Market","Latitude":"-1.859409","Address1":"Market Street","Postcode":"HX1 1DZ","Longitude":"53.722352"}},{"type":"Feature","geometry":{"type":"Point","coordinates":[53.722352,-1.859409]},"properties":{"Site position":"AP1","Address2":"","Address3":"Halifax","Site name":"Halifax Borough Market","Latitude":"-1.859409","Address1":"Market Street","Postcode":"HX1 1DZ","Longitude":"53.722352"}},{"type":"Feature","geometry":{"type":"Point","coordinates":[53.722352,-1.859409]},"properties":{"Site position":"AP3","Address2":"","Address3":"Halifax","Site name":"Halifax Borough Market","Latitude":"-1.859409","Address1":"Market Street","Postcode":"HX1 1DZ","Longitude":"53.722352"}},{"type":"Feature","geometry":{"type":"Point","coordinates":[53.722352,-1.859409]},"properties":{"Site position":"Clock","Address2":"","Address3":"Halifax","Site name":"Halifax Borough Market","Latitude":"-1.859409","Address1":"Market Street","Postcode":"HX1 1DZ","Longitude":"53.722352"}},{"type":"Feature","geometry":{"type":"Point","coordinates":[53.722352,-1.859409]},"properties":{"Site position":"AP2","Address2":"","Address3":"Halifax","Site name":"Halifax Borough Market","Latitude":"-1.859409","Address1":"Market Street","Postcode":"HX1 1DZ","Longitude":"53.722352"}},{"type":"Feature","geometry":{"type":"Point","coordinates":[53.712426,-1.863095]},"properties":{"Site position":"Adult Education - Main reception","Address2":"","Address3":"Halifax","Site name":"Heath Campus","Latitude":"-1.863095","Address1":"Free School Lane","Postcode":"HX1 2PS","Longitude":"53.712426"}},{"type":"Feature","geometry":{"type":"Point","coordinates":[53.712426,-1.863095]},"properties":{"Site position":"Adult Education - ICT suite","Address2":"","Address3":"Halifax","Site name":"Heath Campus","Latitude":"-1.863095","Address1":"Free School Lane","Postcode":"HX1 2PS","Longitude":"53.712426"}},{"type":"Feature","geometry":{"type":"Point","coordinates":[53.712426,-1.863095]},"properties":{"Site position":"Adult Education - Coffee bar","Address2":"","Address3":"Halifax","Site name":"Heath Campus","Latitude":"-1.863095","Address1":"Free School Lane","Postcode":"HX1 2PS","Longitude":"53.712426"}},{"type":"Feature","geometry":{"type":"Point","coordinates":[53.712426,-1.863095]},"properties":{"Site position":"Adult Education - Cooking room","Address2":"","Address3":"Halifax","Site name":"Heath Campus","Latitude":"-1.863095","Address1":"Free School Lane","Postcode":"HX1 2PS","Longitude":"53.712426"}},{"type":"Feature","geometry":{"type":"Point","coordinates":[53.712426,-1.863095]},"properties":{"Site position":"Adult Education - Classroom 1","Address2":"","Address3":"Halifax","Site name":"Heath Campus","Latitude":"-1.863095","Address1":"Free School Lane","Postcode":"HX1 2PS","Longitude":"53.712426"}},{"type":"Feature","geometry":{"type":"Point","coordinates":[53.712426,-1.863095]},"properties":{"Site position":"Adult Education - Enrichment suite","Address2":"","Address3":"Halifax","Site name":"Heath Campus","Latitude":"-1.863095","Address1":"Free School Lane","Postcode":"HX1 2PS","Longitude":"53.712426"}},{"type":"Feature","geometry":{"type":"Point","coordinates":[53.712426,-1.863095]},"properties":{"Site position":"Adult Education - Classroom 3","Address2":"","Address3":"Halifax","Site name":"Heath Campus","Latitude":"-1.863095","Address1":"Free School Lane","Postcode":"HX1 2PS","Longitude":"53.712426"}},{"type":"Feature","geometry":{"type":"Point","coordinates":[53.712426,-1.863095]},"properties":{"Site position":"Adult Education - Sewing and Holistic room","Address2":"","Address3":"Halifax","Site name":"Heath Campus","Latitude":"-1.863095","Address1":"Free School Lane","Postcode":"HX1 2PS","Longitude":"53.712426"}},{"type":"Feature","geometry":{"type":"Point","coordinates":[53.740532,-2.012231]},"properties":{"Site position":"Tourist Information Centre","Address2":"","Address3":"Hebden Bridge","Site name":"Hebden Bridge","Latitude":"-2.012231","Address1":"1 New Road","Postcode":"HX7 8AD","Longitude":"53.740532"}},{"type":"Feature","geometry":{"type":"Point","coordinates":[53.741223,-2.012174]},"properties":{"Site position":"First floor","Address2":"","Address3":"Hebden Bridge","Site name":"Hebden Bridge Library","Latitude":"-2.012174","Address1":"Cheetham Street","Postcode":"HX7 8EP","Longitude":"53.741223"}},{"type":"Feature","geometry":{"type":"Point","coordinates":[53.741223,-2.012174]},"properties":{"Site position":"Ground floor","Address2":"","Address3":"Hebden Bridge","Site name":"Hebden Bridge Library","Latitude":"-2.012174","Address1":"Cheetham Street","Postcode":"HX7 8EP","Longitude":"53.741223"}},{"type":"Feature","geometry":{"type":"Point","coordinates":[53.742322,-2.013093]},"properties":{"Site position":"","Address2":"","Address3":"Hebden Bridge","Site name":"Hebden Bridge Town Hall","Latitude":"-2.013093","Address1":"St Georges Street","Postcode":"HX7 7BY","Longitude":"53.742322"}},{"type":"Feature","geometry":{"type":"Point","coordinates":[53.725821,-1.810856]},"properties":{"Site position":"Library area","Address2":"Hipperholme","Address3":"Halifax","Site name":"Hipperholme Library","Latitude":"-1.810856","Address1":"North Park","Postcode":"HX3 8NH","Longitude":"53.725821"}},{"type":"Feature","geometry":{"type":"Point","coordinates":[53.714374,-1.881795]},"properties":{"Site position":"Computer area","Address2":"King Cross","Address3":"Halifax","Site name":"King Cross Library","Latitude":"-1.881795","Address1":"151 Haugh Shaw Road","Postcode":"HX1 3BG","Longitude":"53.714374"}},{"type":"Feature","geometry":{"type":"Point","coordinates":[53.714374,-1.881795]},"properties":{"Site position":"Childrens library area","Address2":"King Cross","Address3":"Halifax","Site name":"King Cross Library","Latitude":"-1.881795","Address1":"151 Haugh Shaw Road","Postcode":"HX1 3BG","Longitude":"53.714374"}},{"type":"Feature","geometry":{"type":"Point","coordinates":[53.714374,-1.881795]},"properties":{"Site position":"First floor","Address2":"King Cross","Address3":"Halifax","Site name":"King Cross Library","Latitude":"-1.881795","Address1":"151 Haugh Shaw Road","Postcode":"HX1 3BG","Longitude":"53.714374"}},{"type":"Feature","geometry":{"type":"Point","coordinates":[53.750898,-1.908169]},"properties":{"Site position":"Library area","Address2":"Mixenden","Address3":"Halifax","Site name":"Mixenden Library","Latitude":"-1.908169","Address1":"103 Mixenden Road","Postcode":"HX2 8PU","Longitude":"53.750898"}},{"type":"Feature","geometry":{"type":"Point","coordinates":[53.728436,-1.983848]},"properties":{"Site position":"Library area","Address2":"Mytholmroyd","Address3":"Hebden Bridge","Site name":"Mytholroyd Library","Latitude":"-1.983848","Address1":"Cragg Road","Postcode":"HX7 5HS","Longitude":"53.728436"}},{"type":"Feature","geometry":{"type":"Point","coordinates":[53.74005,-1.83064]},"properties":{"Site position":"Library area","Address2":"Northowram","Address3":"Halifax","Site name":"Northowram Library","Latitude":"-1.830640","Address1":"1 St Matthews Drive","Postcode":"HX3 7EL","Longitude":"53.740050"}},{"type":"Feature","geometry":{"type":"Point","coordinates":[53.74005,-1.83064]},"properties":{"Site position":"Surestart area","Address2":"Northowram","Address3":"Halifax","Site name":"Northowram Library","Latitude":"-1.830640","Address1":"1 St Matthews Drive","Postcode":"HX3 7EL","Longitude":"53.740050"}},{"type":"Feature","geometry":{"type":"Point","coordinates":[53.696407,-1.835867]},"properties":{"Site position":"","Address2":"","Address3":"Elland","Site name":"Park Wood Crematorium","Latitude":"-1.835867","Address1":"Park Road","Postcode":"HX5 9HZ","Longitude":"53.696407"}},{"type":"Feature","geometry":{"type":"Point","coordinates":[53.696407,-1.835867]},"properties":{"Site position":"","Address2":"","Address3":"Elland","Site name":"Park Wood Crematorium","Latitude":"-1.835867","Address1":"Park Road","Postcode":"HX5 9HZ","Longitude":"53.696407"}},{"type":"Feature","geometry":{"type":"Point","coordinates":[53.688912,-1.794924]},"properties":{"Site position":"External","Address2":"Rastrick","Address3":"Brighouse","Site name":"Rastrick Library","Latitude":"-1.794924","Address1":"38 Crowtrees Lane","Postcode":"HD6 3NE","Longitude":"53.688912"}},{"type":"Feature","geometry":{"type":"Point","coordinates":[53.688912,-1.794924]},"properties":{"Site position":"Library area","Address2":"Rastrick","Address3":"Brighouse","Site name":"Rastrick Library","Latitude":"-1.794924","Address1":"38 Crowtrees Lane","Postcode":"HD6 3NE","Longitude":"53.688912"}},{"type":"Feature","geometry":{"type":"Point","coordinates":[53.675854,-1.940079]},"properties":{"Site position":"Library area","Address2":"Ripponden","Address3":"Sowerby Bridge","Site name":"Ripponden Library","Latitude":"-1.940079","Address1":"1 Brig Royd","Postcode":"HX6 4AN","Longitude":"53.675854"}},{"type":"Feature","geometry":{"type":"Point","coordinates":[53.716161,-1.858159]},"properties":{"Site position":"Banqueting Suite","Address2":"","Address3":"Halifax","Site name":"Shay Stadium","Latitude":"-1.858159","Address1":"Shay Syke","Postcode":"HX3 0AQ","Longitude":"53.716161"}},{"type":"Feature","geometry":{"type":"Point","coordinates":[53.716161,-1.858159]},"properties":{"Site position":"Directors Box 5","Address2":"","Address3":"Halifax","Site name":"Shay Stadium","Latitude":"-1.858159","Address1":"Shay Syke","Postcode":"HX3 0AQ","Longitude":"53.716161"}},{"type":"Feature","geometry":{"type":"Point","coordinates":[53.716161,-1.858159]},"properties":{"Site position":"Directors Box 4","Address2":"","Address3":"Halifax","Site name":"Shay Stadium","Latitude":"-1.858159","Address1":"Shay Syke","Postcode":"HX3 0AQ","Longitude":"53.716161"}},{"type":"Feature","geometry":{"type":"Point","coordinates":[53.716161,-1.858159]},"properties":{"Site position":"Directors Box 2","Address2":"","Address3":"Halifax","Site name":"Shay Stadium","Latitude":"-1.858159","Address1":"Shay Syke","Postcode":"HX3 0AQ","Longitude":"53.716161"}},{"type":"Feature","geometry":{"type":"Point","coordinates":[53.716161,-1.858159]},"properties":{"Site position":"Function Room 2","Address2":"","Address3":"Halifax","Site name":"Shay Stadium","Latitude":"-1.858159","Address1":"Shay Syke","Postcode":"HX3 0AQ","Longitude":"53.716161"}},{"type":"Feature","geometry":{"type":"Point","coordinates":[53.752177,-1.81622]},"properties":{"Site position":"Function room","Address2":"Shelf","Address3":"Halifax","Site name":"Shelf Library","Latitude":"-1.81622","Address1":"Shelf Village Hall, Halifax Road","Postcode":"HX3 7NT","Longitude":"53.752177"}},{"type":"Feature","geometry":{"type":"Point","coordinates":[53.752177,-1.81622]},"properties":{"Site position":"Library area","Address2":"Shelf","Address3":"Halifax","Site name":"Shelf Library","Latitude":"-1.81622","Address1":"Shelf Village Hall, Halifax Road","Postcode":"HX3 7NT","Longitude":"53.752177"}},{"type":"Feature","geometry":{"type":"Point","coordinates":[53.728277,-1.839974]},"properties":{"Site position":"Reception","Address2":"","Address3":"Halifax","Site name":"Shibden Hall","Latitude":"-1.839974","Address1":"Listers Road","Postcode":"HX3 6XG","Longitude":"53.728277"}},{"type":"Feature","geometry":{"type":"Point","coordinates":[53.705748,-1.86336]},"properties":{"Site position":"Library area","Address2":"Skircoat","Address3":"Halifax","Site name":"Skircoat Library","Latitude":"-1.863360","Address1":"297 Skircoat Green Road","Postcode":"HX3 0LQ","Longitude":"53.705748"}},{"type":"Feature","geometry":{"type":"Point","coordinates":[53.709918,-1.832112]},"properties":{"Site position":"Library area","Address2":"Southowram","Address3":"Halifax","Site name":"Southowram Library","Latitude":"-1.832112","Address1":"Law Lane","Postcode":"HX3 9QU","Longitude":"53.709918"}},{"type":"Feature","geometry":{"type":"Point","coordinates":[53.708547,-1.912849]},"properties":{"Site position":"Library area","Address2":"","Address3":"Sowerby Bridge","Site name":"Sowerby Bridge Library","Latitude":"-1.912849","Address1":"Hollins Mill Lane","Postcode":"HX6 2QG","Longitude":"53.708547"}},{"type":"Feature","geometry":{"type":"Point","coordinates":[53.711586,-1.856979]},"properties":{"Site position":"Registrars","Address2":"","Address3":"Halifax","Site name":"Spring Hall Mansion","Latitude":"-1.856979","Address1":"Huddersfield Road","Postcode":"HX3 0AQ","Longitude":"53.711586"}},{"type":"Feature","geometry":{"type":"Point","coordinates":[53.711586,-1.856979]},"properties":{"Site position":"Registrars","Address2":"","Address3":"Halifax","Site name":"Spring Hall Mansion","Latitude":"-1.856979","Address1":"Huddersfield Road","Postcode":"HX3 0AQ","Longitude":"53.711586"}},{"type":"Feature","geometry":{"type":"Point","coordinates":[53.670922,-1.883742]},"properties":{"Site position":"Library area","Address2":"Stainland","Address3":"Halifax","Site name":"Stainland Library","Latitude":"-1.883742","Address1":"South Parade","Postcode":"HX4 9HW","Longitude":"53.670922"}},{"type":"Feature","geometry":{"type":"Point","coordinates":[53.712686,-2.098772]},"properties":{"Site position":"Reading rook","Address2":"","Address3":"Todmorden","Site name":"Todmorden Library","Latitude":"-2.098772","Address1":"8 Rochdale Road","Postcode":"OL14 7LB","Longitude":"53.712686"}},{"type":"Feature","geometry":{"type":"Point","coordinates":[53.712686,-2.098772]},"properties":{"Site position":"Back room","Address2":"","Address3":"Todmorden","Site name":"Todmorden Library","Latitude":"-2.098772","Address1":"8 Rochdale Road","Postcode":"OL14 7LB","Longitude":"53.712686"}},{"type":"Feature","geometry":{"type":"Point","coordinates":[53.712686,-2.098772]},"properties":{"Site position":"Meeting room","Address2":"","Address3":"Todmorden","Site name":"Todmorden Library","Latitude":"-2.098772","Address1":"8 Rochdale Road","Postcode":"OL14 7LB","Longitude":"53.712686"}},{"type":"Feature","geometry":{"type":"Point","coordinates":[53.713895,-2.097525]},"properties":{"Site position":"Todmorden - Town Hall","Address2":"","Address3":"Todmorden","Site name":"Todmorden Town Hall","Latitude":"-2.097525","Address1":"Bridge Street","Postcode":"OL14 5AQ","Longitude":"53.713895"}},{"type":"Feature","geometry":{"type":"Point","coordinates":[53.721052,-1.861387]},"properties":{"Site position":"Box Office","Address2":"","Address3":"Halifax","Site name":"Victoria Theatre","Latitude":"-1.861387","Address1":"2 Fountain Street","Postcode":"HX1 1BP","Longitude":"53.721052"}},{"type":"Feature","geometry":{"type":"Point","coordinates":[53.721052,-1.861387]},"properties":{"Site position":"Lower Changing Room","Address2":"","Address3":"Halifax","Site name":"Victoria Theatre","Latitude":"-1.861387","Address1":"2 Fountain Street","Postcode":"HX1 1BP","Longitude":"53.721052"}},{"type":"Feature","geometry":{"type":"Point","coordinates":[53.721052,-1.861387]},"properties":{"Site position":"VIP Lounge","Address2":"","Address3":"Halifax","Site name":"Victoria Theatre","Latitude":"-1.861387","Address1":"2 Fountain Street","Postcode":"HX1 1BP","Longitude":"53.721052"}},{"type":"Feature","geometry":{"type":"Point","coordinates":[53.721052,-1.861387]},"properties":{"Site position":"Tour Office","Address2":"","Address3":"Halifax","Site name":"Victoria Theatre","Latitude":"-1.861387","Address1":"2 Fountain Street","Postcode":"HX1 1BP","Longitude":"53.721052"}},{"type":"Feature","geometry":{"type":"Point","coordinates":[53.721052,-1.861387]},"properties":{"Site position":"Auditorium Right","Address2":"","Address3":"Halifax","Site name":"Victoria Theatre","Latitude":"-1.861387","Address1":"2 Fountain Street","Postcode":"HX1 1BP","Longitude":"53.721052"}},{"type":"Feature","geometry":{"type":"Point","coordinates":[53.721052,-1.861387]},"properties":{"Site position":"Main Bar","Address2":"","Address3":"Halifax","Site name":"Victoria Theatre","Latitude":"-1.861387","Address1":"2 Fountain Street","Postcode":"HX1 1BP","Longitude":"53.721052"}},{"type":"Feature","geometry":{"type":"Point","coordinates":[53.721052,-1.861387]},"properties":{"Site position":"Stage Control","Address2":"","Address3":"Halifax","Site name":"Victoria Theatre","Latitude":"-1.861387","Address1":"2 Fountain Street","Postcode":"HX1 1BP","Longitude":"53.721052"}},{"type":"Feature","geometry":{"type":"Point","coordinates":[53.721052,-1.861387]},"properties":{"Site position":"Main Changing Room","Address2":"","Address3":"Halifax","Site name":"Victoria Theatre","Latitude":"-1.861387","Address1":"2 Fountain Street","Postcode":"HX1 1BP","Longitude":"53.721052"}},{"type":"Feature","geometry":{"type":"Point","coordinates":[53.721052,-1.861387]},"properties":{"Site position":"Green Room","Address2":"","Address3":"Halifax","Site name":"Victoria Theatre","Latitude":"-1.861387","Address1":"2 Fountain Street","Postcode":"HX1 1BP","Longitude":"53.721052"}},{"type":"Feature","geometry":{"type":"Point","coordinates":[53.721052,-1.861387]},"properties":{"Site position":"Auditorium Left","Address2":"","Address3":"Halifax","Site name":"Victoria Theatre","Latitude":"-1.861387","Address1":"2 Fountain Street","Postcode":"HX1 1BP","Longitude":"53.721052"}},{"type":"Feature","geometry":{"type":"Point","coordinates":[53.694338,-2.10074]},"properties":{"Site position":"Library area","Address2":"Walsden","Address3":"Todmorden","Site name":"Walsden Library","Latitude":"-2.100740","Address1":"2 Newall Street","Postcode":"OL14 7SW","Longitude":"53.694338"}}]}
