{"type":"FeatureCollection","features":[{"type":"Feature","properties":{"Name of Supply":"John Penny and Sons","Postcode":"LS19 6NU","Longitude":"-1.6757304","Latitude":"53.848528","OS Grid Ref":"SE214310 391920","Type of Water Use":"Commercial/Large","Source":"Borehole"},"geometry":{"type":"Point","coordinates":[-1.67573,53.848528]}},{"type":"Feature","properties":{"Name of Supply":"Goodall's Beech Grove Farm","Postcode":"LS14 3HG","Longitude":"-1.4571406","Latitude":"53.850552","OS Grid Ref":"SE354010 695910","Type of Water Use":"Commercial/Large","Source":"Borehole"},"geometry":{"type":"Point","coordinates":[-1.457141,53.850552]}},{"type":"Feature","properties":{"Name of Supply":"William Strikes Ltd","Postcode":"LS25 2AQ","Longitude":"-1.3704547","Latitude":"53.78225","OS Grid Ref":"SE416110 319480","Type of Water Use":"Commercial/Large","Source":"Borehole"},"geometry":{"type":"Point","coordinates":[-1.370455,53.78225]}},{"type":"Feature","properties":{"Name of Supply":"Scarcroft golf Club","Postcode":"LS14 3BQ","Longitude":"-1.4503403","Latitude":"53.871858","OS Grid Ref":"SE362390 418790","Type of Water Use":"Commercial/Large","Source":"Borehole"},"geometry":{"type":"Point","coordinates":[-1.45034,53.871858]}},{"type":"Feature","properties":{"Name of Supply":"Moor Valley Leisure Ltd","Postcode":"LS20 8PG","Longitude":"-1.76614","Latitude":"53.87047","OS Grid Ref":"SE154750 416100","Type of Water Use":"Commercial/Large","Source":"Borehole"},"geometry":{"type":"Point","coordinates":[-1.76614,53.87047]}},{"type":"Feature","properties":{"Name of Supply":"Chevin Country Park Hotel & Spa","Postcode":"LS21 3NU","Longitude":"-1.6794066","Latitude":"53.89061","OS Grid Ref":"SE211680 438730","Type of Water Use":"Commercial/Large","Source":"Borehole"},"geometry":{"type":"Point","coordinates":[-1.679407,53.89061]}},{"type":"Feature","properties":{"Name of Supply":"Greenside Farm","Postcode":"LS19 7DW","Longitude":"-1.6921567","Latitude":"53.857496","OS Grid Ref":"SE203460 401850","Type of Water Use":"Commercial/Large","Source":"Borehole"},"geometry":{"type":"Point","coordinates":[-1.692157,53.857496]}},{"type":"Feature","properties":{"Name of Supply":"Stubhouse Farm","Postcode":"LS17 9LF","Longitude":"-1.533213","Latitude":"53.896413","OS Grid Ref":"SE307750 445830","Type of Water Use":"Commercial/Large","Source":"Borehole"},"geometry":{"type":"Point","coordinates":[-1.533213,53.896413]}},{"type":"Feature","properties":{"Name of Supply":"Chevin Forest Park The White House","Postcode":"LS21 3JL","Longitude":"-1.6953227","Latitude":"53.89679","OS Grid Ref":"SE201190 445560","Type of Water Use":"Commercial/Large","Source":"Spring"},"geometry":{"type":"Point","coordinates":[-1.695323,53.89679]}},{"type":"Feature","properties":{"Name of Supply":"Hopewell Equestrian Centre","Postcode":"LS20 9NW","Longitude":"-1.6859183","Latitude":"53.882556","OS Grid Ref":"SE207440 429750","Type of Water Use":"Commercial/Large","Source":"Borehole"},"geometry":{"type":"Point","coordinates":[-1.685918,53.882556]}},{"type":"Feature","properties":{"Name of Supply":"Burden Head Farm","Postcode":"LS16 8AY","Longitude":"-1.5610708","Latitude":"53.886775","OS Grid Ref":"SE289930 435180","Type of Water Use":"Commercial/Large","Source":"Borehole"},"geometry":{"type":"Point","coordinates":[-1.561071,53.886775]}},{"type":"Feature","properties":{"Name of Supply":"Green Gaits Farm","Postcode":"LS18 5HY","Longitude":"-1.6482535","Latitude":"53.878767","OS Grid Ref":"SE232220 425650","Type of Water Use":"Commercial","Source":"Borehole"},"geometry":{"type":"Point","coordinates":[-1.648254,53.878767]}},{"type":"Feature","properties":{"Name of Supply":"Creskeld Hall / Creskeld House","Postcode":"LS21 1NT","Longitude":"-1.6064597","Latitude":"53.894303","OS Grid Ref":"SE 259600 443080","Type of Water Use":"Commercialï¿½ ","Source":"Spring"},"geometry":{"type":"Point","coordinates":[-1.60646,53.894303]}},{"type":"Feature","properties":{"Name of Supply":"Woodbottom Farm","Postcode":"LS19 6JS","Longitude":"-1.6701993","Latitude":"53.836685","OS Grid Ref":"SE218010 378760","Type of Water Use":"Commercial","Source":"Spring"},"geometry":{"type":"Point","coordinates":[-1.670199,53.836685]}},{"type":"Feature","properties":{"Name of Supply":"Middlefield Farm","Postcode":"LS17 9LA","Longitude":"-1.4901352","Latitude":"53.904903","OS Grid Ref":"SE33596 45536","Type of Water Use":"Commercial","Source":"Borehole"},"geometry":{"type":"Point","coordinates":[-1.490135,53.904903]}}]}
